{
"type": "FeatureCollection",
"name": "delhi_airshade_small_geometries",
"crs": { "type": "name", "properties": { "name": "urn:ogc:def:crs:OGC:1.3:CRS84" } },
"features": [
{ "type": "Feature", "properties": { "x_idx": 4928, "y_idx": 4352, "x": 9787916, "y": 2542598 }, "geometry": { "type": "Polygon", "coordinates": [ [ [ 87.912619101767575, 22.271285888370926 ], [ 87.940084922076238, 22.271285888370926 ], [ 87.940084922076238, 22.245866716461482 ], [ 87.912619101767575, 22.245866716461482 ], [ 87.912619101767575, 22.271285888370926 ] ] ] } },
{ "type": "Feature", "properties": { "x_idx": 6080, "y_idx": 8384, "x": 9793420, "y": 2523336 }, "geometry": { "type": "Polygon", "coordinates": [ [ [ 87.962057578323169, 22.111068182851138 ], [ 87.989523398631832, 22.111068182851138 ], [ 87.989523398631832, 22.085620015613674 ], [ 87.962057578323169, 22.085620015613674 ], [ 87.962057578323169, 22.111068182851138 ] ] ] } },
{ "type": "Feature", "properties": { "x_idx": 4928, "y_idx": 3776, "x": 9787916, "y": 2545350 }, "geometry": { "type": "Polygon", "coordinates": [ [ [ 87.912619101767575, 22.294159195099063 ], [ 87.940084922076238, 22.294159195099063 ], [ 87.940084922076238, 22.268744178900729 ], [ 87.912619101767575, 22.268744178900729 ], [ 87.912619101767575, 22.294159195099063 ] ] ] } },
{ "type": "Feature", "properties": { "x_idx": 4928, "y_idx": 3200, "x": 9787916, "y": 2548102 }, "geometry": { "type": "Polygon", "coordinates": [ [ [ 87.912619101767575, 22.317028758485336 ], [ 87.940084922076238, 22.317028758485336 ], [ 87.940084922076238, 22.291617901374654 ], [ 87.912619101767575, 22.291617901374654 ], [ 87.912619101767575, 22.317028758485336 ] ] ] } },
{ "type": "Feature", "properties": { "x_idx": 5504, "y_idx": 7808, "x": 9790668, "y": 2526088 }, "geometry": { "type": "Polygon", "coordinates": [ [ [ 87.937338340045372, 22.133967607880187 ], [ 87.964804160354021, 22.133967607880187 ], [ 87.964804160354021, 22.108523572668876 ], [ 87.937338340045372, 22.108523572668876 ], [ 87.937338340045372, 22.133967607880187 ] ] ] } },
{ "type": "Feature", "properties": { "x_idx": 6080, "y_idx": 8960, "x": 9793420, "y": 2520585 }, "geometry": { "type": "Polygon", "coordinates": [ [ [ 87.962057578323169, 22.088165038829032 ], [ 87.989523398631832, 22.088165038829032 ], [ 87.989523398631832, 22.062712742956982 ], [ 87.962057578323169, 22.062712742956982 ], [ 87.962057578323169, 22.088165038829032 ] ] ] } },
{ "type": "Feature", "properties": { "x_idx": 5504, "y_idx": 4352, "x": 9790668, "y": 2542598 }, "geometry": { "type": "Polygon", "coordinates": [ [ [ 87.937338340045372, 22.271285888370926 ], [ 87.964804160354021, 22.271285888370926 ], [ 87.964804160354021, 22.245866716461482 ], [ 87.937338340045372, 22.245866716461482 ], [ 87.937338340045372, 22.271285888370926 ] ] ] } },
{ "type": "Feature", "properties": { "x_idx": 6080, "y_idx": 7808, "x": 9793420, "y": 2526088 }, "geometry": { "type": "Polygon", "coordinates": [ [ [ 87.962057578323169, 22.133967607880187 ], [ 87.989523398631832, 22.133967607880187 ], [ 87.989523398631832, 22.108523572668876 ], [ 87.962057578323169, 22.108523572668876 ], [ 87.962057578323169, 22.133967607880187 ] ] ] } },
{ "type": "Feature", "properties": { "x_idx": 4928, "y_idx": 8960, "x": 9787916, "y": 2520585 }, "geometry": { "type": "Polygon", "coordinates": [ [ [ 87.912619101767575, 22.088165038829032 ], [ 87.940084922076238, 22.088165038829032 ], [ 87.940084922076238, 22.062712742956982 ], [ 87.912619101767575, 22.062712742956982 ], [ 87.912619101767575, 22.088165038829032 ] ] ] } },
{ "type": "Feature", "properties": { "x_idx": 6080, "y_idx": 5504, "x": 9793420, "y": 2537095 }, "geometry": { "type": "Polygon", "coordinates": [ [ [ 87.962057578323169, 22.225528057018817 ], [ 87.989523398631832, 22.225528057018817 ], [ 87.989523398631832, 22.200100583817409 ], [ 87.962057578323169, 22.200100583817409 ], [ 87.962057578323169, 22.225528057018817 ] ] ] } },
{ "type": "Feature", "properties": { "x_idx": 3776, "y_idx": 7232, "x": 9782413, "y": 2528840 }, "geometry": { "type": "Polygon", "coordinates": [ [ [ 87.863180625214397, 22.156863310860555 ], [ 87.890646445520645, 22.156863310860555 ], [ 87.890646445520645, 22.131423411070454 ], [ 87.863180625214397, 22.131423411070454 ], [ 87.863180625214397, 22.156863310860555 ] ] ] } },
{ "type": "Feature", "properties": { "x_idx": 4352, "y_idx": 8960, "x": 9785165, "y": 2520585 }, "geometry": { "type": "Polygon", "coordinates": [ [ [ 87.887899863492194, 22.088165038829032 ], [ 87.915365683798441, 22.088165038829032 ], [ 87.915365683798441, 22.062712742956982 ], [ 87.887899863492194, 22.062712742956982 ], [ 87.887899863492194, 22.088165038829032 ] ] ] } },
{ "type": "Feature", "properties": { "x_idx": 4352, "y_idx": 7808, "x": 9785165, "y": 2526088 }, "geometry": { "type": "Polygon", "coordinates": [ [ [ 87.887899863492194, 22.133967607880187 ], [ 87.915365683798441, 22.133967607880187 ], [ 87.915365683798441, 22.108523572668876 ], [ 87.887899863492194, 22.108523572668876 ], [ 87.887899863492194, 22.133967607880187 ] ] ] } },
{ "type": "Feature", "properties": { "x_idx": 6080, "y_idx": 4928, "x": 9793420, "y": 2539847 }, "geometry": { "type": "Polygon", "coordinates": [ [ [ 87.962057578323169, 22.248408841328072 ], [ 87.989523398631832, 22.248408841328072 ], [ 87.989523398631832, 22.22298551708727 ], [ 87.962057578323169, 22.22298551708727 ], [ 87.962057578323169, 22.248408841328072 ] ] ] } },
{ "type": "Feature", "properties": { "x_idx": 4928, "y_idx": 7808, "x": 9787916, "y": 2526088 }, "geometry": { "type": "Polygon", "coordinates": [ [ [ 87.912619101767575, 22.133967607880187 ], [ 87.940084922076238, 22.133967607880187 ], [ 87.940084922076238, 22.108523572668876 ], [ 87.912619101767575, 22.108523572668876 ], [ 87.912619101767575, 22.133967607880187 ] ] ] } },
{ "type": "Feature", "properties": { "x_idx": 4928, "y_idx": 8384, "x": 9787916, "y": 2523336 }, "geometry": { "type": "Polygon", "coordinates": [ [ [ 87.912619101767575, 22.111068182851138 ], [ 87.940084922076238, 22.111068182851138 ], [ 87.940084922076238, 22.085620015613674 ], [ 87.912619101767575, 22.085620015613674 ], [ 87.912619101767575, 22.111068182851138 ] ] ] } },
{ "type": "Feature", "properties": { "x_idx": 2624, "y_idx": 6080, "x": 9776909, "y": 2534343 }, "geometry": { "type": "Polygon", "coordinates": [ [ [ 87.813742148658818, 22.202643538476067 ], [ 87.841207968967481, 22.202643538476067 ], [ 87.841207968967481, 22.17721191969412 ], [ 87.813742148658818, 22.17721191969412 ], [ 87.813742148658818, 22.202643538476067 ] ] ] } },
{ "type": "Feature", "properties": { "x_idx": 2624, "y_idx": 5504, "x": 9776909, "y": 2537095 }, "geometry": { "type": "Polygon", "coordinates": [ [ [ 87.813742148658818, 22.225528057018817 ], [ 87.841207968967481, 22.225528057018817 ], [ 87.841207968967481, 22.200100583817409 ], [ 87.813742148658818, 22.200100583817409 ], [ 87.813742148658818, 22.225528057018817 ] ] ] } },
{ "type": "Feature", "properties": { "x_idx": 5504, "y_idx": 8384, "x": 9790668, "y": 2523336 }, "geometry": { "type": "Polygon", "coordinates": [ [ [ 87.937338340045372, 22.111068182851138 ], [ 87.964804160354021, 22.111068182851138 ], [ 87.964804160354021, 22.085620015613674 ], [ 87.937338340045372, 22.085620015613674 ], [ 87.937338340045372, 22.111068182851138 ] ] ] } },
{ "type": "Feature", "properties": { "x_idx": 2624, "y_idx": 4928, "x": 9776909, "y": 2539847 }, "geometry": { "type": "Polygon", "coordinates": [ [ [ 87.813742148658818, 22.248408841328072 ], [ 87.841207968967481, 22.248408841328072 ], [ 87.841207968967481, 22.22298551708727 ], [ 87.813742148658818, 22.22298551708727 ], [ 87.813742148658818, 22.248408841328072 ] ] ] } },
{ "type": "Feature", "properties": { "x_idx": 5504, "y_idx": 8960, "x": 9790668, "y": 2520585 }, "geometry": { "type": "Polygon", "coordinates": [ [ [ 87.937338340045372, 22.088165038829032 ], [ 87.964804160354021, 22.088165038829032 ], [ 87.964804160354021, 22.062712742956982 ], [ 87.937338340045372, 22.062712742956982 ], [ 87.937338340045372, 22.088165038829032 ] ] ] } },
{ "type": "Feature", "properties": { "x_idx": 4352, "y_idx": 4352, "x": 9785165, "y": 2542598 }, "geometry": { "type": "Polygon", "coordinates": [ [ [ 87.887899863492194, 22.271285888370926 ], [ 87.915365683798441, 22.271285888370926 ], [ 87.915365683798441, 22.245866716461482 ], [ 87.887899863492194, 22.245866716461482 ], [ 87.887899863492194, 22.271285888370926 ] ] ] } },
{ "type": "Feature", "properties": { "x_idx": 2624, "y_idx": 6656, "x": 9776909, "y": 2531591 }, "geometry": { "type": "Polygon", "coordinates": [ [ [ 87.813742148658818, 22.179755288741728 ], [ 87.841207968967481, 22.179755288741728 ], [ 87.841207968967481, 22.154319527762478 ], [ 87.813742148658818, 22.154319527762478 ], [ 87.813742148658818, 22.179755288741728 ] ] ] } },
{ "type": "Feature", "properties": { "x_idx": 6080, "y_idx": 7232, "x": 9793420, "y": 2528840 }, "geometry": { "type": "Polygon", "coordinates": [ [ [ 87.962057578323169, 22.156863310860555 ], [ 87.989523398631832, 22.156863310860555 ], [ 87.989523398631832, 22.131423411070454 ], [ 87.962057578323169, 22.131423411070454 ], [ 87.962057578323169, 22.156863310860555 ] ] ] } },
{ "type": "Feature", "properties": { "x_idx": 3200, "y_idx": 6656, "x": 9779661, "y": 2531591 }, "geometry": { "type": "Polygon", "coordinates": [ [ [ 87.838461386936601, 22.179755288741728 ], [ 87.865927207245264, 22.179755288741728 ], [ 87.865927207245264, 22.154319527762478 ], [ 87.838461386936601, 22.154319527762478 ], [ 87.838461386936601, 22.179755288741728 ] ] ] } },
{ "type": "Feature", "properties": { "x_idx": 3200, "y_idx": 7232, "x": 9779661, "y": 2528840 }, "geometry": { "type": "Polygon", "coordinates": [ [ [ 87.838461386936601, 22.156863310860555 ], [ 87.865927207245264, 22.156863310860555 ], [ 87.865927207245264, 22.131423411070454 ], [ 87.838461386936601, 22.131423411070454 ], [ 87.838461386936601, 22.156863310860555 ] ] ] } },
{ "type": "Feature", "properties": { "x_idx": 3776, "y_idx": 6656, "x": 9782413, "y": 2531591 }, "geometry": { "type": "Polygon", "coordinates": [ [ [ 87.863180625214397, 22.179755288741728 ], [ 87.890646445520645, 22.179755288741728 ], [ 87.890646445520645, 22.154319527762478 ], [ 87.863180625214397, 22.154319527762478 ], [ 87.863180625214397, 22.179755288741728 ] ] ] } },
{ "type": "Feature", "properties": { "x_idx": 3776, "y_idx": 7808, "x": 9782413, "y": 2526088 }, "geometry": { "type": "Polygon", "coordinates": [ [ [ 87.863180625214397, 22.133967607880187 ], [ 87.890646445520645, 22.133967607880187 ], [ 87.890646445520645, 22.108523572668876 ], [ 87.863180625214397, 22.108523572668876 ], [ 87.863180625214397, 22.133967607880187 ] ] ] } },
{ "type": "Feature", "properties": { "x_idx": 4352, "y_idx": 6656, "x": 9785165, "y": 2531591 }, "geometry": { "type": "Polygon", "coordinates": [ [ [ 87.887899863492194, 22.179755288741728 ], [ 87.915365683798441, 22.179755288741728 ], [ 87.915365683798441, 22.154319527762478 ], [ 87.887899863492194, 22.154319527762478 ], [ 87.887899863492194, 22.179755288741728 ] ] ] } },
{ "type": "Feature", "properties": { "x_idx": 4352, "y_idx": 7232, "x": 9785165, "y": 2528840 }, "geometry": { "type": "Polygon", "coordinates": [ [ [ 87.887899863492194, 22.156863310860555 ], [ 87.915365683798441, 22.156863310860555 ], [ 87.915365683798441, 22.131423411070454 ], [ 87.887899863492194, 22.131423411070454 ], [ 87.887899863492194, 22.156863310860555 ] ] ] } }
]
}
